EAGLEEYE                
1 60508U 24149AS  26140.22427356  .00060898  00000+0  59504-3 0  9999
2 60508  97.3727 232.1279 0001241   7.4779 352.6499 15.65988359 98558
FLOCK 4BE-29            
1 60509U 24149AT  26140.17599398  .00013158  00000+0  29903-3 0  9997
2 60509  97.3807 225.6489 0003451  65.3710 294.7897 15.43133815 98093
TRANSPORTER-11 OBJECT AU
1 60510U 24149AU  26140.50399914  .00011171  00000+0  28782-3 0  9995
2 60510  97.3728 224.0214 0004242  50.4932 309.6688 15.39369300 98051
FLOCK 4BE-2             
1 60511U 24149AV  26140.51312648  .00040523  00000+0  73201-3 0  9995
2 60511  97.3817 227.0868 0002872  58.0364 302.1166 15.49609632 98212
FLOCK 4BE-13            
1 60512U 24149AW  26140.17753455  .00010224  00000+0  24943-3 0  9997
2 60512  97.3720 224.3158 0004090  32.0764 328.0731 15.41059384 98050
FLOCK 4BE-27            
1 60513U 24149AX  26140.21355485  .00006480  00000+0  19994-3 0  9993
2 60513  97.3824 222.0627 0004874  60.3099 299.8628 15.33907482 97856
FLOCK 4BE-9             
1 60514U 24149AY  26140.22101482  .00011685  00000+0  29602-3 0  9991
2 60514  97.3788 224.2411 0003564  66.0699 294.0920 15.39877453 98016
FLOCK 4BE-6             
1 60516U 24149BA  26140.48853115  .00011315  00000+0  29742-3 0  9993
2 60516  97.3786 223.9198 0004208  59.5191 300.6469 15.38749112 98015
FLOCK 4BE-14            
1 60517U 24149BB  26140.17176755  .00012424  00000+0  31281-3 0  9991
2 60517  97.3695 223.7146 0004986  55.6424 304.5294 15.40044707 98015
FLOCK 4BE-1             
1 60518U 24149BC  26140.21625421  .00012512  00000+0  29958-3 0  9992
2 60518  97.3779 224.9384 0004558  55.6325 304.5352 15.41573054 98064
FLOCK 4BE-28            
1 60519U 24149BD  26140.20704244  .00013721  00000+0  30436-3 0  9999
2 60519  97.3747 225.5679 0004567  49.6507 310.5140 15.43841503 98127
IPERDRONE.0             
1 60520U 24149BE  26140.22940853  .00053415  00000+0  59674-3 0  9990
2 60520  97.3779 232.1514 0001042 354.9795   5.1452 15.62607062 98542
TRANSPORTER-11 OBJECT BF
1 60521U 24149BF  26140.24375544  .00114518  00000+0  79537-3 0  9994
2 60521  97.3780 234.2675 0001461 271.6379  88.4718 15.74082279 98677
CONNECTA IOT-2          
1 60522U 24149BG  26140.46921855  .00003008  00000+0  12814-3 0  9997
2 60522  97.3840 219.0401 0007950  69.6400 290.5691 15.23708504 97677
PTD-R (TYVAK-0127)      
1 60523U 24149BH  26140.50976764  .00164908  11963-4  55368-3 0  9995
2 60523  97.3792 238.7654 0002265 243.0342 117.0700 15.90111170 99014
CONNECTA IOT-4          
1 60524U 24149BJ  26140.49064664  .00014488  00000+0  35273-3 0  9996
2 60524  97.3794 224.5568 0005574  44.3982 315.7711 15.41025528 98062
ORESAT0.5               
1 60525U 24149BK  26140.19471617  .00014857  00000+0  32823-3 0  9992
2 60525  97.3721 225.7912 0005519  35.6198 324.5418 15.43937874 98150
DEIMOS                  
1 60526U 24149BL  26140.53617630  .00013760  00000+0  31236-3 0  9997
2 60526  97.3781 226.2909 0005733  40.7196 319.4479 15.43145343 98187
CUAVA-2                 
1 60527U 24149BM  26140.45694264  .00008750  00000+0  25647-3 0  9999
2 60527  97.3725 221.9441 0007338  44.4010 315.7820 15.35411938 97914
ERNST                   
1 60528U 24149BN  26140.53316698  .00010423  00000+0  27715-3 0  9999
2 60528  97.3806 224.0625 0006687  48.3391 311.8426 15.38404771 98026
TORO                    
1 60530U 24149BQ  26140.15434633  .00001688  00000+0  15434-3 0  9998
2 60530  97.6792 215.3468 0001919  95.1539 264.9902 14.96307457 95762
HYPSO-2                 
1 60531U 24149BR  26140.15938274  .00002279  00000+0  19473-3 0  9993
2 60531  97.6829 216.8287 0002883  96.8258 263.3292 14.98638016 95851
LEMU NGE                
1 60532U 24149BS  26140.27281312  .00001320  00000+0  12645-3 0  9991
2 60532  97.6846 215.7984 0002638 104.6829 255.4684 14.94819731 95783
LEMUR-2-STELLA          
1 60533U 24149BT  26140.27677230  .00007502  00000+0  45138-3 0  9991
2 60533  97.6733 222.6250 0002230 114.9898 245.1563 15.11124819 96284
SATELIOT_2              
1 60534U 24149BU  26140.47469161  .00001265  00000+0  11715-3 0  9990
2 60534  97.6830 215.9377 0001606 116.2269 243.9117 14.96241841 95828
NIGHTJAR                
1 60535U 24149BV  26140.48863111  .00002340  00000+0  19879-3 0  9999
2 60535  97.6837 217.5809 0002326 126.6827 233.4610 14.98834376138721
LEMUR-2-MARHISYAM       
1 60536U 24149BW  26140.18099343  .00008476  00000+0  51677-3 0  9993
2 60536  97.6873 222.9486 0002171 176.5937 183.5307 15.10603986 96252
SATELIOT_4              
1 60537U 24149BX  26140.15693687  .00001780  00000+0  16145-3 0  9994
2 60537  97.6744 215.1722 0003646 114.2749 245.8854 14.96556293 95782
PICO-02A021             
1 60538U 24149BY  26140.47303049  .00003090  00000+0  23433-3 0  9994
2 60538  97.6763 219.5522 0007358 107.1000 253.1032 15.02958507 95574
ICEYE-X43               
1 60539U 24149BZ  26140.47311368  .00002016  00000+0  16782-3 0  9994
2 60539  97.6761 217.8210 0005433 172.2759 187.8549 14.99774686 95962
